NORAD_CAT_ID,OBJECT_NAME,OBJECT_TYPE,EPOCH,MEAN_MOTION,ECCENTRICITY,INCLINATION,RA_OF_ASC_NODE,ARG_OF_PERICENTER,MEAN_ANOMALY,BSTAR,MEAN_MOTION_DOT,MEAN_MOTION_DDOT,TLE_LINE0,TLE_LINE1,TLE_LINE2,SEMIMAJOR_AXIS,PERIOD,APOGEE,PERIGEE,DECAYED
52830.0,STARLINK-4091,PAYLOAD,2024-07-21 05:24:13,15.08844704,0.0001208,53.2158,191.9431,92.5068,267.6062,0.0001886,2.715e-05,0.0,0 STARLINK-4091,1 52830U 22062A   24203.22516161  .00002715  00000-0  18860-3 0  9996,2 52830  53.2158 191.9431 0001208  92.5068 267.6062 15.08844704116247,6917.866,95.437,540.567,538.895,0.0
52830.0,STARLINK-4091,PAYLOAD,2024-07-21 08:34:59,15.08848185,0.0001274,53.216,191.3487,91.1693,268.9445,0.00024096,3.55e-05,0.0,0 STARLINK-4091,1 52830U 22062A   24203.35763867  .00003550  00000-0  24096-3 0  9993,2 52830  53.2160 191.3487 0001274  91.1693 268.9445 15.08848185115758,6917.855,95.437,540.602,538.839,0.0
52830.0,STARLINK-4091,PAYLOAD,2024-07-22 05:15:01,15.0883788,0.0001283,53.2159,187.4793,100.6343,259.4794,3.014e-05,1.92e-06,0.0,0 STARLINK-4091,1 52830U 22062A   24204.21877123  .00000192  00000-0  30140-4 0  9997,2 52830  53.2159 187.4793 0001283 100.6343 259.4794 15.08837880116393,6917.887,95.438,540.639,538.864,0.0
52830.0,STARLINK-4091,PAYLOAD,2024-07-22 22:44:15,15.08837262,0.00015,53.2167,184.2051,117.5595,242.555,0.00013781,1.906e-05,0.0,0 STARLINK-4091,1 52830U 22062A   24204.94740400  .00001906  00000-0  13781-3 0  9999,2 52830  53.2167 184.2051 0001500 117.5595 242.5550 15.08837262115994,6917.889,95.438,540.791,538.716,0.0
52830.0,STARLINK-4091,PAYLOAD,2024-07-23 05:05:47,15.08856853,0.0001349,53.2169,183.0234,92.9204,267.1943,4.4969e-05,4.28e-06,0.0,0 STARLINK-4091,1 52830U 22062A   24205.21235669  .00000428  00000-0  44969-4 0  9997,2 52830  53.2169 183.0234 0001349  92.9204 267.1943 15.08856853116548,6917.829,95.436,540.627,538.761,0.0
52830.0,STARLINK-4091,PAYLOAD,2024-07-23 08:16:33,15.08859805,0.0001351,53.2167,182.4277,92.9971,267.1175,7.5247e-05,9.1e-06,0.0,0 STARLINK-4091,1 52830U 22062A   24205.34483294  .00000910  00000-0  75247-4 0  9999,2 52830  53.2167 182.4277 0001351  92.9971 267.1175 15.08859805116053,6917.82,95.436,540.619,538.75,0.0
52830.0,STARLINK-4091,PAYLOAD,2024-07-23 22:35:03,15.08832487,0.0001058,53.2176,179.7537,83.4546,276.6566,-1.4424e-05,-5.17e-06,0.0,0 STARLINK-4091,1 52830U 22062A   24205.94101335 -.00000517  00000-0 -14424-4 0  9993,2 52830  53.2176 179.7537 0001058  83.4546 276.6566 15.08832487116144,6917.903,95.438,540.5,539.036,0.0
52830.0,STARLINK-4091,PAYLOAD,2024-07-24 04:56:36,15.08833368,0.0001284,53.2171,178.5633,90.8879,269.2261,1.1594e-05,-1.03e-06,0.0,0 STARLINK-4091,1 52830U 22062A   24206.20597368 -.00000103  00000-0  11594-4 0  9993,2 52830  53.2171 178.5633 0001284  90.8879 269.2261 15.08833368116694,6917.901,95.438,540.654,538.877,0.0
52830.0,STARLINK-4091,PAYLOAD,2024-07-24 08:07:22,15.08834911,0.0001237,53.2168,177.9676,91.3822,268.7312,2.7952e-05,1.57e-06,0.0,0 STARLINK-4091,1 52830U 22062A   24206.33845290  .00000157  00000-0  27952-4 0  9990,2 52830  53.2168 177.9676 0001237  91.3822 268.7312 15.08834911116205,6917.896,95.438,540.617,538.905,0.0
52830.0,STARLINK-4091,PAYLOAD,2024-07-24 22:25:50,15.0884296,0.0001199,53.2169,175.2911,97.0441,263.0688,1.2381e-05,-9.1e-07,0.0,0 STARLINK-4091,1 52830U 22062A   24206.93460907 -.00000091  00000-0  12381-4 0  9992,2 52830  53.2169 175.2911 0001199  97.0441 263.0688 15.08842960116292,6917.871,95.437,540.566,538.907,0.0
52830.0,STARLINK-4091,PAYLOAD,2024-07-25 04:47:22,15.08845603,0.0001342,53.2164,174.1016,100.8715,259.2428,9.5106e-05,1.226e-05,0.0,0 STARLINK-4091,1 52830U 22062A   24207.19956595  .00001226  00000-0  95106-4 0  9990,2 52830  53.2164 174.1016 0001342 100.8715 259.2428 15.08845603116845,6917.863,95.437,540.657,538.8,0.0
52830.0,STARLINK-4091,PAYLOAD,2024-07-25 22:16:37,15.08832393,0.0001447,53.2167,170.8309,105.0566,255.0586,0.0001127,1.506e-05,0.0,0 STARLINK-4091,1 52830U 22062A   24207.92821434  .00001506  00000-0  11270-3 0  9994,2 52830  53.2167 170.8309 0001447 105.0566 255.0586 15.08832393116440,6917.904,95.438,540.77,538.768,0.0
52830.0,STARLINK-4091,PAYLOAD,2024-07-26 04:38:10,15.08835942,0.0001453,53.2167,169.6415,104.8006,255.3147,0.00014212,1.974e-05,0.0,0 STARLINK-4091,1 52830U 22062A   24208.19317383  .00001974  00000-0  14212-3 0  9995,2 52830  53.2167 169.6415 0001453 104.8006 255.3147 15.08835942116996,6917.893,95.438,540.763,538.753,0.0
52830.0,STARLINK-4091,PAYLOAD,2024-07-26 20:32:01,15.08845401,0.0001511,53.2171,166.6714,100.8587,259.2575,0.00017853,2.555e-05,0.0,0 STARLINK-4091,1 52830U 22062A   24208.85556939  .00002555  00000-0  17853-3 0  9990,2 52830  53.2171 166.6714 0001511 100.8587 259.2575 15.08845401116589,6917.864,95.437,540.774,538.684,0.0
52830.0,STARLINK-4091,PAYLOAD,2024-07-27 04:28:56,15.08845337,0.0001479,53.2169,165.184,98.6561,261.4599,0.00011205,1.496e-05,0.0,0 STARLINK-4091,1 52830U 22062A   24209.18676868  .00001496  00000-0  11205-3 0  9999,2 52830  53.2169 165.1840 0001479  98.6561 261.4599 15.08845337117141,6917.864,95.437,540.752,538.706,0.0
52830.0,STARLINK-4091,PAYLOAD,2024-07-28 04:19:44,15.0883328,0.000132,53.2156,160.7224,92.6143,267.5,-1.7373e-05,-5.64e-06,0.0,0 STARLINK-4091,1 52830U 22062A   24210.18037672 -.00000564  00000-0 -17373-4 0  9995,2 52830  53.2156 160.7224 0001320  92.6143 267.5000 15.08833280117293,6917.901,95.438,540.679,538.853,0.0
52830.0,STARLINK-4091,PAYLOAD,2024-07-28 13:52:03,15.08837866,0.0001372,53.2171,158.939,84.7454,275.3695,3.1063e-05,2.06e-06,0.0,0 STARLINK-4091,1 52830U 22062A   24210.57781982  .00000206  00000-0  31063-4 0  9991,2 52830  53.2171 158.9390 0001372  84.7454 275.3695 15.08837866116848,6917.887,95.438,540.701,538.803,0.0
52830.0,STARLINK-4091,PAYLOAD,2024-07-29 04:10:30,15.08874761,0.0001367,53.2168,156.2618,87.0265,273.0884,-0.0003135,-5.279e-05,0.0,0 STARLINK-4091,1 52830U 22062A   24211.17396219 -.00005279  00000-0 -31350-3 0  9998,2 52830  53.2168 156.2618 0001367  87.0265 273.0884 15.08874761117445,6917.774,95.435,540.585,538.693,0.0
52830.0,STARLINK-4091,PAYLOAD,2024-07-29 13:42:50,15.08840868,0.0001403,53.2172,154.478,87.7284,272.3869,0.00013566,1.872e-05,0.0,0 STARLINK-4091,1 52830U 22062A   24211.57141580  .00001872  00000-0  13566-3 0  9993,2 52830  53.2172 154.4780 0001403  87.7284 272.3869 15.08840868116994,6917.878,95.437,540.713,538.772,0.0
52830.0,STARLINK-4091,PAYLOAD,2024-07-29 20:04:23,15.08838709,0.0001413,53.2165,153.2909,86.6047,273.5107,0.00011753,1.583e-05,0.0,0 STARLINK-4091,1 52830U 22062A   24211.83637824  .00001583  00000-0  11753-3 0  9998,2 52830  53.2165 153.2909 0001413  86.6047 273.5107 15.08838709117543,6917.884,95.438,540.727,538.772,0.0
52830.0,STARLINK-4091,PAYLOAD,2024-07-30 13:33:37,15.08840832,0.0001296,53.2158,150.0175,93.3616,266.7524,0.00010556,1.393e-05,0.0,0 STARLINK-4091,1 52830U 22062A   24212.56501775  .00001393  00000-0  10556-3 0  9993,2 52830  53.2158 150.0175 0001296  93.3616 266.7524 15.08840832117144,6917.878,95.438,540.639,538.846,0.0
52830.0,STARLINK-4091,PAYLOAD,2024-07-30 23:05:56,15.08845729,0.0001329,53.2157,148.2331,92.6789,267.4355,0.00010133,1.325e-05,0.0,0 STARLINK-4091,1 52830U 22062A   24212.96245456  .00001325  00000-0  10133-3 0  9994,2 52830  53.2157 148.2331 0001329  92.6789 267.4355 15.08845729117203,6917.863,95.437,540.647,538.808,0.0
52830.0,STARLINK-4091,PAYLOAD,2024-07-31 02:16:41,15.08853597,0.0001322,53.2162,147.6387,90.4401,269.6743,8.0204e-05,9.89e-06,0.0,0 STARLINK-4091,1 52830U 22062A   24213.09493020  .00000989  00000-0  80204-4 0  9993,2 52830  53.2162 147.6387 0001322  90.4401 269.6743 15.08853597117222,6917.839,95.437,540.618,538.789,0.0
52830.0,STARLINK-4091,PAYLOAD,2024-07-31 19:45:57,15.08837264,0.0001318,53.2152,144.3672,93.2474,266.8669,6.5613e-05,7.56e-06,0.0,0 STARLINK-4091,1 52830U 22062A   24213.82358056  .00000756  00000-0  65613-4 0  9992,2 52830  53.2152 144.3672 0001318  93.2474 266.8669 15.08837264117845,6917.889,95.438,540.666,538.842,0.0
52830.0,STARLINK-4091,PAYLOAD,2024-07-31 22:56:43,15.08836657,0.0001387,53.2152,143.7719,98.062,262.0529,5.4967e-05,5.87e-06,0.0,0 STARLINK-4091,1 52830U 22062A   24213.95606147  .00000587  00000-0  54967-4 0  9995,2 52830  53.2152 143.7719 0001387  98.0620 262.0529 15.08836657117356,6917.891,95.438,540.715,538.796,0.0
52830.0,STARLINK-4091,PAYLOAD,2024-08-01 02:07:29,15.08838543,0.0001269,53.2158,143.178,88.8524,271.2614,7.4902e-05,9.04e-06,0.0,0 STARLINK-4091,1 52830U 22062A   24214.08854044  .00000904  00000-0  74902-4 0  9995,2 52830  53.2158 143.1780 0001269  88.8524 271.2614 15.08838543117378,6917.885,95.438,540.628,538.872,0.0
52830.0,STARLINK-4091,PAYLOAD,2024-08-01 19:36:43,15.08848181,0.0001255,53.2159,139.9069,86.357,273.7565,0.00013111,1.8e-05,0.0,0 STARLINK-4091,1 52830U 22062A   24214.81717213  .00001800  00000-0  13111-3 0  9992,2 52830  53.2159 139.9069 0001255  86.3570 273.7565 15.08848181117990,6917.855,95.437,540.589,538.852,0.0
52830.0,STARLINK-4091,PAYLOAD,2024-08-01 22:47:29,15.08852515,0.0001382,53.2156,139.3105,86.5452,273.5698,0.00018012,2.581e-05,0.0,0 STARLINK-4091,1 52830U 22062A   24214.94965088  .00002581  00000-0  18012-3 0  9993,2 52830  53.2156 139.3105 0001382  86.5452 273.5698 15.08852515117502,6917.842,95.437,540.663,538.751,0.0
52830.0,STARLINK-4091,PAYLOAD,2024-08-02 01:58:15,15.08861001,0.0001302,53.2157,138.7176,83.7737,276.3403,0.00035073,5.302e-05,0.0,0 STARLINK-4091,1 52830U 22062A   24215.08212650  .00005302  00000-0  35073-3 0  9999,2 52830  53.2157 138.7176 0001302  83.7737 276.3403 15.08861001118035,6917.816,95.436,540.582,538.78,0.0
52830.0,STARLINK-4091,PAYLOAD,2024-08-02 11:30:34,15.08845448,0.0001376,53.2156,136.9303,87.2856,272.8293,0.00010351,1.36e-05,0.0,0 STARLINK-4091,1 52830U 22062A   24215.47957171  .00001360  00000-0  10351-3 0  9998,2 52830  53.2156 136.9303 0001376  87.2856 272.8293 15.08845448118099,6917.864,95.437,540.681,538.777,0.0
